IRIDIUM 26              
1 24903U 97043A   25050.79045038  .00000968  00000+0  32014-3 0  9994
2 24903  86.4026 159.9092 0002285  98.0405 262.1051 14.36982780439881
IRIDIUM 22              
1 24907U 97043E   25050.83304309  .00000876  00000+0  29607-3 0  9994
2 24907  86.4031 163.3240 0002082  94.6859 265.4575 14.35814573439931
DUMMY MASS 1            
1 24925U 97048A   25050.91522914  .00001135  00000+0  12426-3 0  9992
2 24925  86.3393 189.4972 0006170 182.4089 177.7107 14.86804958487701
DUMMY MASS 2            
1 24926U 97048B   25051.12713331  .00001111  00000+0  12231-3 0  9990
2 24926  86.3390 190.9834 0006509 196.2425 163.8592 14.86558438487754
IRIDIUM 29              
1 24944U 97051A   25050.89662601  .00001113  00000+0  37446-3 0  9997
2 24944  86.4005 193.0356 0001838  91.3741 268.7667 14.36290079436433
IRIDIUM 33              
1 24946U 97051C   25051.10026297  .00000759  00000+0  26096-3 0  9993
2 24946  86.3922 192.2019 0009880  99.2733 260.9581 14.34770716435967
IRIDIUM 28              
1 24948U 97051E   25051.08520331  .00001013  00000+0  33396-3 0  9995
2 24948  86.4013 190.5416 0002466  96.5049 263.6429 14.37224650437097
IRIDIUM 36              
1 24967U 97056C   25050.99626687  .00001123  00000+0  36941-3 0  9992
2 24967  86.3957 222.1751 0002230  87.0562 273.0891 14.37421987435382
